[{"OBJECT_NAME":"STARLINK-3601","OBJECT_ID":"2022-017AN","EPOCH":"2025-10-16T05:14:30.542784","MEAN_MOTION":15.08839683,"ECCENTRICITY":0.0001505,"INCLINATION":53.2176,"RA_OF_ASC_NODE":257.6786,"ARG_OF_PERICENTER":86.1968,"MEAN_ANOMALY":273.9197,"EPHEMERIS_TYPE":0,"CLASSIFICATION_TYPE":"U","NORAD_CAT_ID":51804,"ELEMENT_SET_NO":999,"REV_AT_EPOCH":20234,"BSTAR":3.7982e-5,"MEAN_MOTION_DOT":3.17e-6,"MEAN_MOTION_DDOT":0},{"OBJECT_NAME":"STARLINK-3605","OBJECT_ID":"2022-017AP","EPOCH":"2025-10-16T02:09:03.902400","MEAN_MOTION":15.08826594,"ECCENTRICITY":0.0001458,"INCLINATION":53.2183,"RA_OF_ASC_NODE":258.3336,"ARG_OF_PERICENTER":93.2179,"MEAN_ANOMALY":266.898,"EPHEMERIS_TYPE":0,"CLASSIFICATION_TYPE":"U","NORAD_CAT_ID":51805,"ELEMENT_SET_NO":999,"REV_AT_EPOCH":20241,"BSTAR":7.4588e-5,"MEAN_MOTION_DOT":8.99e-6,"MEAN_MOTION_DDOT":0},{"OBJECT_NAME":"STARLINK-3606","OBJECT_ID":"2022-017AR","EPOCH":"2025-10-16T02:28:55.076736","MEAN_MOTION":15.08830901,"ECCENTRICITY":0.0001387,"INCLINATION":53.2163,"RA_OF_ASC_NODE":268.1934,"ARG_OF_PERICENTER":94.136,"MEAN_ANOMALY":265.979,"EPHEMERIS_TYPE":0,"CLASSIFICATION_TYPE":"U","NORAD_CAT_ID":51807,"ELEMENT_SET_NO":999,"REV_AT_EPOCH":20228,"BSTAR":-2.3066e-6,"MEAN_MOTION_DOT":-3.25e-6,"MEAN_MOTION_DDOT":0},{"OBJECT_NAME":"STARLINK-3609","OBJECT_ID":"2022-017AS","EPOCH":"2025-10-16T03:43:05.907936","MEAN_MOTION":15.08838269,"ECCENTRICITY":0.0001396,"INCLINATION":53.2168,"RA_OF_ASC_NODE":267.9624,"ARG_OF_PERICENTER":89.5626,"MEAN_ANOMALY":270.5526,"EPHEMERIS_TYPE":0,"CLASSIFICATION_TYPE":"U","NORAD_CAT_ID":51808,"ELEMENT_SET_NO":999,"REV_AT_EPOCH":20214,"BSTAR":6.3669e-5,"MEAN_MOTION_DOT":7.25e-6,"MEAN_MOTION_DDOT":0},{"OBJECT_NAME":"STARLINK-3607","OBJECT_ID":"2022-017AT","EPOCH":"2025-10-16T02:18:18.194688","MEAN_MOTION":15.08839984,"ECCENTRICITY":0.0001451,"INCLINATION":53.2163,"RA_OF_ASC_NODE":268.1873,"ARG_OF_PERICENTER":90.6366,"MEAN_ANOMALY":269.4793,"EPHEMERIS_TYPE":0,"CLASSIFICATION_TYPE":"U","NORAD_CAT_ID":51809,"ELEMENT_SET_NO":999,"REV_AT_EPOCH":20223,"BSTAR":7.3158e-5,"MEAN_MOTION_DOT":8.77e-6,"MEAN_MOTION_DDOT":0},{"OBJECT_NAME":"STARLINK-3613","OBJECT_ID":"2022-017AU","EPOCH":"2025-10-16T04:48:02.746656","MEAN_MOTION":15.08846936,"ECCENTRICITY":0.0001448,"INCLINATION":53.2163,"RA_OF_ASC_NODE":257.9802,"ARG_OF_PERICENTER":95.5375,"MEAN_ANOMALY":264.5783,"EPHEMERIS_TYPE":0,"CLASSIFICATION_TYPE":"U","NORAD_CAT_ID":51810,"ELEMENT_SET_NO":999,"REV_AT_EPOCH":20226,"BSTAR":-0.00026577,"MEAN_MOTION_DOT":-4.516e-5,"MEAN_MOTION_DDOT":0},{"OBJECT_NAME":"STARLINK-3569","OBJECT_ID":"2022-017AV","EPOCH":"2025-10-16T02:13:00.583104","MEAN_MOTION":15.08842123,"ECCENTRICITY":0.0001434,"INCLINATION":53.2153,"RA_OF_ASC_NODE":268.2426,"ARG_OF_PERICENTER":91.8159,"MEAN_ANOMALY":268.2997,"EPHEMERIS_TYPE":0,"CLASSIFICATION_TYPE":"U","NORAD_CAT_ID":51811,"ELEMENT_SET_NO":999,"REV_AT_EPOCH":20213,"BSTAR":7.1976e-5,"MEAN_MOTION_DOT":8.58e-6,"MEAN_MOTION_DDOT":0},{"OBJECT_NAME":"STARLINK-3610","OBJECT_ID":"2022-017AW","EPOCH":"2025-10-16T02:24:56.223072","MEAN_MOTION":15.0883934,"ECCENTRICITY":0.0001913,"INCLINATION":53.217,"RA_OF_ASC_NODE":258.2074,"ARG_OF_PERICENTER":80.8002,"MEAN_ANOMALY":279.3207,"EPHEMERIS_TYPE":0,"CLASSIFICATION_TYPE":"U","NORAD_CAT_ID":51812,"ELEMENT_SET_NO":999,"REV_AT_EPOCH":20225,"BSTAR":3.7257e-5,"MEAN_MOTION_DOT":3.05e-6,"MEAN_MOTION_DDOT":0},{"OBJECT_NAME":"STARLINK-3552","OBJECT_ID":"2022-017AX","EPOCH":"2025-10-16T03:33:50.103648","MEAN_MOTION":15.0883525,"ECCENTRICITY":0.0001478,"INCLINATION":53.2186,"RA_OF_ASC_NODE":258.0217,"ARG_OF_PERICENTER":95.6822,"MEAN_ANOMALY":264.4339,"EPHEMERIS_TYPE":0,"CLASSIFICATION_TYPE":"U","NORAD_CAT_ID":51813,"ELEMENT_SET_NO":999,"REV_AT_EPOCH":20226,"BSTAR":7.2027e-5,"MEAN_MOTION_DOT":8.58e-6,"MEAN_MOTION_DDOT":0},{"OBJECT_NAME":"STARLINK-3599","OBJECT_ID":"2022-017AY","EPOCH":"2025-10-16T02:14:20.536800","MEAN_MOTION":15.08836861,"ECCENTRICITY":0.0001364,"INCLINATION":53.2174,"RA_OF_ASC_NODE":258.2396,"ARG_OF_PERICENTER":94.0845,"MEAN_ANOMALY":266.0303,"EPHEMERIS_TYPE":0,"CLASSIFICATION_TYPE":"U","NORAD_CAT_ID":51814,"ELEMENT_SET_NO":999,"REV_AT_EPOCH":20225,"BSTAR":7.3549e-5,"MEAN_MOTION_DOT":8.83e-6,"MEAN_MOTION_DDOT":0},{"OBJECT_NAME":"STARLINK-3604","OBJECT_ID":"2022-017AZ","EPOCH":"2025-10-16T02:19:38.813664","MEAN_MOTION":15.08835303,"ECCENTRICITY":0.0001373,"INCLINATION":53.2171,"RA_OF_ASC_NODE":258.2241,"ARG_OF_PERICENTER":89.4104,"MEAN_ANOMALY":270.7045,"EPHEMERIS_TYPE":0,"CLASSIFICATION_TYPE":"U","NORAD_CAT_ID":51815,"ELEMENT_SET_NO":999,"REV_AT_EPOCH":20225,"BSTAR":1.7612e-5,"MEAN_MOTION_DOT":-8.0e-8,"MEAN_MOTION_DDOT":0},{"OBJECT_NAME":"STARLINK-3603","OBJECT_ID":"2022-017BA","EPOCH":"2025-10-16T04:17:38.776992","MEAN_MOTION":15.0883144,"ECCENTRICITY":0.0001419,"INCLINATION":53.2173,"RA_OF_ASC_NODE":258.0959,"ARG_OF_PERICENTER":83.6263,"MEAN_ANOMALY":276.489,"EPHEMERIS_TYPE":0,"CLASSIFICATION_TYPE":"U","NORAD_CAT_ID":51816,"ELEMENT_SET_NO":999,"REV_AT_EPOCH":20231,"BSTAR":-3.9116e-5,"MEAN_MOTION_DOT":-9.1e-6,"MEAN_MOTION_DDOT":0},{"OBJECT_NAME":"STARLINK-3542","OBJECT_ID":"2022-022A","EPOCH":"2025-10-16T01:14:43.664064","MEAN_MOTION":15.08834975,"ECCENTRICITY":0.000143,"INCLINATION":53.2172,"RA_OF_ASC_NODE":308.4254,"ARG_OF_PERICENTER":89.2745,"MEAN_ANOMALY":270.8411,"EPHEMERIS_TYPE":0,"CLASSIFICATION_TYPE":"U","NORAD_CAT_ID":51852,"ELEMENT_SET_NO":999,"REV_AT_EPOCH":19992,"BSTAR":4.8765e-5,"MEAN_MOTION_DOT":4.88e-6,"MEAN_MOTION_DDOT":0},{"OBJECT_NAME":"STARLINK-3541","OBJECT_ID":"2022-022C","EPOCH":"2025-10-15T18:47:52.840608","MEAN_MOTION":15.08842395,"ECCENTRICITY":0.00015472,"INCLINATION":53.2178,"RA_OF_ASC_NODE":309.6318,"ARG_OF_PERICENTER":84.6312,"MEAN_ANOMALY":275.4856,"EPHEMERIS_TYPE":0,"CLASSIFICATION_TYPE":"U","NORAD_CAT_ID":51854,"ELEMENT_SET_NO":999,"REV_AT_EPOCH":20114,"BSTAR":8.3248098e-5,"MEAN_MOTION_DOT":1.037e-5,"MEAN_MOTION_DDOT":0},{"OBJECT_NAME":"STARLINK-3545","OBJECT_ID":"2022-022D","EPOCH":"2025-10-15T18:26:40.318080","MEAN_MOTION":15.08839139,"ECCENTRICITY":0.00013648,"INCLINATION":53.2163,"RA_OF_ASC_NODE":309.6237,"ARG_OF_PERICENTER":91.7202,"MEAN_ANOMALY":268.3946,"EPHEMERIS_TYPE":0,"CLASSIFICATION_TYPE":"U","NORAD_CAT_ID":51855,"ELEMENT_SET_NO":999,"REV_AT_EPOCH":20109,"BSTAR":2.385863e-5,"MEAN_MOTION_DOT":9.2e-7,"MEAN_MOTION_DDOT":0},{"OBJECT_NAME":"STARLINK-3568","OBJECT_ID":"2022-022E","EPOCH":"2025-10-15T18:43:57.452448","MEAN_MOTION":15.08844994,"ECCENTRICITY":0.00014107,"INCLINATION":53.2172,"RA_OF_ASC_NODE":309.6552,"ARG_OF_PERICENTER":83.721,"MEAN_ANOMALY":276.3943,"EPHEMERIS_TYPE":0,"CLASSIFICATION_TYPE":"U","NORAD_CAT_ID":51856,"ELEMENT_SET_NO":999,"REV_AT_EPOCH":20117,"BSTAR":0.00010420206,"MEAN_MOTION_DOT":1.371e-5,"MEAN_MOTION_DDOT":0},{"OBJECT_NAME":"STARLINK-3571","OBJECT_ID":"2022-022F","EPOCH":"2025-10-15T18:28:04.177056","MEAN_MOTION":15.0885033,"ECCENTRICITY":0.00012816,"INCLINATION":53.2158,"RA_OF_ASC_NODE":309.7054,"ARG_OF_PERICENTER":97.4568,"MEAN_ANOMALY":262.657,"EPHEMERIS_TYPE":0,"CLASSIFICATION_TYPE":"U","NORAD_CAT_ID":51857,"ELEMENT_SET_NO":999,"REV_AT_EPOCH":20114,"BSTAR":0.00046999616,"MEAN_MOTION_DOT":7.202e-5,"MEAN_MOTION_DDOT":0}]
