STARLINK-3601           
1 51804U 22017AN  25289.21840906  .00000317  00000+0  37982-4 0  9999
2 51804  53.2176 257.6786 0001505  86.1968 273.9197 15.08839683202344
STARLINK-3605           
1 51805U 22017AP  25289.08962850  .00000899  00000+0  74588-4 0  9996
2 51805  53.2183 258.3336 0001458  93.2179 266.8980 15.08826594202418
STARLINK-3606           
1 51807U 22017AR  25289.10341524 -.00000325  00000+0 -23066-5 0  9992
2 51807  53.2163 268.1934 0001387  94.1360 265.9790 15.08830901202285
STARLINK-3609           
1 51808U 22017AS  25289.15492949  .00000725  00000+0  63669-4 0  9990
2 51808  53.2168 267.9624 0001396  89.5626 270.5526 15.08838269202146
STARLINK-3607           
1 51809U 22017AT  25289.09604392  .00000877  00000+0  73158-4 0  9993
2 51809  53.2163 268.1873 0001451  90.6366 269.4793 15.08839984202235
STARLINK-3613           
1 51810U 22017AU  25289.20003179 -.00004516  00000+0 -26577-3 0  9992
2 51810  53.2163 257.9802 0001448  95.5375 264.5783 15.08846936202268
STARLINK-3569           
1 51811U 22017AV  25289.09236786  .00000858  00000+0  71976-4 0  9999
2 51811  53.2153 268.2426 0001434  91.8159 268.2997 15.08842123202137
STARLINK-3610           
1 51812U 22017AW  25289.10065073  .00000305  00000+0  37257-4 0  9992
2 51812  53.2170 258.2074 0001913  80.8002 279.3207 15.08839340202259
STARLINK-3552           
1 51813U 22017AX  25289.14849657  .00000858  00000+0  72027-4 0  9992
2 51813  53.2186 258.0217 0001478  95.6822 264.4339 15.08835250202262
STARLINK-3599           
1 51814U 22017AY  25289.09329325  .00000883  00000+0  73549-4 0  9990
2 51814  53.2174 258.2396 0001364  94.0845 266.0303 15.08836861202259
STARLINK-3604           
1 51815U 22017AZ  25289.09697701 -.00000008  00000+0  17612-4 0  9996
2 51815  53.2171 258.2241 0001373  89.4104 270.7045 15.08835303202257
STARLINK-3603           
1 51816U 22017BA  25289.17892103 -.00000910  00000+0 -39116-4 0  9995
2 51816  53.2173 258.0959 0001419  83.6263 276.4890 15.08831440202313
STARLINK-3542           
1 51852U 22022A   25289.05189426  .00000488  00000+0  48765-4 0  9993
2 51852  53.2172 308.4254 0001430  89.2745 270.8411 15.08834975199925
STARLINK-3541           
1 51854U 22022C   25288.78325047  .00001037  00000+0  83248-4 0  9991
2 51854  53.2178 309.6318 0001547  84.6312 275.4856 15.08842395201142
STARLINK-3545           
1 51855U 22022D   25288.76852220  .00000092  00000+0  23859-4 0  9990
2 51855  53.2163 309.6237 0001364  91.7202 268.3946 15.08839139201098
STARLINK-3568           
1 51856U 22022E   25288.78052607  .00001371  00000+0  10420-3 0  9994
2 51856  53.2172 309.6552 0001410  83.7210 276.3943 15.08844994201171
STARLINK-3571           
1 51857U 22022F   25288.76949279  .00007202  00000+0  47000-3 0  9996
2 51857  53.2158 309.7054 0001281  97.4568 262.6570 15.08850330201140
